CCSDS_OMM_VERS = 2.0
CREATION_DATE  = 
ORIGINATOR     = 

OBJECT_NAME    = STARLINK-36823
OBJECT_ID      = 2026-042B
CENTER_NAME    = EARTH
REF_FRAME      = TEME
TIME_SYSTEM    = UTC
MEAN_ELEMENT_THEORY = SGP/SGP4

EPOCH          = 2026-03-28T06:46:04.548576
MEAN_MOTION    = 15.80964953
ECCENTRICITY   = .0001446
INCLINATION    = 53.1585
RA_OF_ASC_NODE = 101.5909
ARG_OF_PERICENTER = 50.7660
MEAN_ANOMALY   = 309.3491

EPHEMERIS_TYPE = 0
CLASSIFICATION_TYPE = U
NORAD_CAT_ID   = 68070
ELEMENT_SET_NO = 999
REV_AT_EPOCH   = 502
BSTAR          = .16534E-2
MEAN_MOTION_DOT = .340255E-2
MEAN_MOTION_DDOT = 0

CCSDS_OMM_VERS = 2.0
CREATION_DATE  = 
ORIGINATOR     = 

OBJECT_NAME    = STARLINK-36970
OBJECT_ID      = 2026-042C
CENTER_NAME    = EARTH
REF_FRAME      = TEME
TIME_SYSTEM    = UTC
MEAN_ELEMENT_THEORY = SGP/SGP4

EPOCH          = 2026-03-28T22:00:01.999584
MEAN_MOTION    = 15.75183409
ECCENTRICITY   = .00011875
INCLINATION    = 53.1585
RA_OF_ASC_NODE = 98.5476
ARG_OF_PERICENTER = 127.6734
MEAN_ANOMALY   = 178.8361

EPHEMERIS_TYPE = 0
CLASSIFICATION_TYPE = U
NORAD_CAT_ID   = 68071
ELEMENT_SET_NO = 999
REV_AT_EPOCH   = 514
BSTAR          = .46671686E-3
MEAN_MOTION_DOT = .71333E-3
MEAN_MOTION_DDOT = 0

CCSDS_OMM_VERS = 2.0
CREATION_DATE  = 
ORIGINATOR     = 

OBJECT_NAME    = STARLINK-36972
OBJECT_ID      = 2026-042D
CENTER_NAME    = EARTH
REF_FRAME      = TEME
TIME_SYSTEM    = UTC
MEAN_ELEMENT_THEORY = SGP/SGP4

EPOCH          = 2026-03-28T12:49:07.218048
MEAN_MOTION    = 15.81061716
ECCENTRICITY   = .00009472
INCLINATION    = 53.1575
RA_OF_ASC_NODE = 100.3191
ARG_OF_PERICENTER = 145.4718
MEAN_ANOMALY   = 214.6367

EPHEMERIS_TYPE = 0
CLASSIFICATION_TYPE = U
NORAD_CAT_ID   = 68072
ELEMENT_SET_NO = 999
REV_AT_EPOCH   = 506
BSTAR          = .16258475E-2
MEAN_MOTION_DOT = .335905E-2
MEAN_MOTION_DDOT = 0

CCSDS_OMM_VERS = 2.0
CREATION_DATE  = 
ORIGINATOR     = 

OBJECT_NAME    = STARLINK-37074
OBJECT_ID      = 2026-042E
CENTER_NAME    = EARTH
REF_FRAME      = TEME
TIME_SYSTEM    = UTC
MEAN_ELEMENT_THEORY = SGP/SGP4

EPOCH          = 2026-03-28T22:00:01.999584
MEAN_MOTION    = 15.75210777
ECCENTRICITY   = .00010589
INCLINATION    = 53.1583
RA_OF_ASC_NODE = 98.4372
ARG_OF_PERICENTER = 104.9940
MEAN_ANOMALY   = 254.8912

EPHEMERIS_TYPE = 0
CLASSIFICATION_TYPE = U
NORAD_CAT_ID   = 68073
ELEMENT_SET_NO = 999
REV_AT_EPOCH   = 514
BSTAR          = .99273628E-4
MEAN_MOTION_DOT = .14586E-3
MEAN_MOTION_DDOT = 0

CCSDS_OMM_VERS = 2.0
CREATION_DATE  = 
ORIGINATOR     = 

OBJECT_NAME    = STARLINK-37045
OBJECT_ID      = 2026-042F
CENTER_NAME    = EARTH
REF_FRAME      = TEME
TIME_SYSTEM    = UTC
MEAN_ELEMENT_THEORY = SGP/SGP4

EPOCH          = 2026-03-27T11:31:55.293312
MEAN_MOTION    = 15.75302623
ECCENTRICITY   = .000277
INCLINATION    = 53.1596
RA_OF_ASC_NODE = 105.8489
ARG_OF_PERICENTER = 39.0243
MEAN_ANOMALY   = 321.0976

EPHEMERIS_TYPE = 0
CLASSIFICATION_TYPE = U
NORAD_CAT_ID   = 68074
ELEMENT_SET_NO = 999
REV_AT_EPOCH   = 489
BSTAR          = .47577E-3
MEAN_MOTION_DOT = .73136E-3
MEAN_MOTION_DDOT = 0

CCSDS_OMM_VERS = 2.0
CREATION_DATE  = 
ORIGINATOR     = 

OBJECT_NAME    = STARLINK-37026
OBJECT_ID      = 2026-042G
CENTER_NAME    = EARTH
REF_FRAME      = TEME
TIME_SYSTEM    = UTC
MEAN_ELEMENT_THEORY = SGP/SGP4

EPOCH          = 2026-03-28T18:12:41.584032
MEAN_MOTION    = 15.75294799
ECCENTRICITY   = .00013745
INCLINATION    = 53.1572
RA_OF_ASC_NODE = 99.5999
ARG_OF_PERICENTER = 86.5344
MEAN_ANOMALY   = 273.5833

EPHEMERIS_TYPE = 0
CLASSIFICATION_TYPE = U
NORAD_CAT_ID   = 68075
ELEMENT_SET_NO = 999
REV_AT_EPOCH   = 509
BSTAR          = .1789268E-2
MEAN_MOTION_DOT = .283723E-2
MEAN_MOTION_DDOT = 0

CCSDS_OMM_VERS = 2.0
CREATION_DATE  = 
ORIGINATOR     = 

OBJECT_NAME    = STARLINK-37023
OBJECT_ID      = 2026-042H
CENTER_NAME    = EARTH
REF_FRAME      = TEME
TIME_SYSTEM    = UTC
MEAN_ELEMENT_THEORY = SGP/SGP4

EPOCH          = 2026-03-28T18:05:13.311456
MEAN_MOTION    = 15.75329475
ECCENTRICITY   = .00016631
INCLINATION    = 53.1579
RA_OF_ASC_NODE = 99.5652
ARG_OF_PERICENTER = 90.9345
MEAN_ANOMALY   = 269.1866

EPHEMERIS_TYPE = 0
CLASSIFICATION_TYPE = U
NORAD_CAT_ID   = 68076
ELEMENT_SET_NO = 999
REV_AT_EPOCH   = 509
BSTAR          = .2032952E-2
MEAN_MOTION_DOT = .324519E-2
MEAN_MOTION_DDOT = 0

CCSDS_OMM_VERS = 2.0
CREATION_DATE  = 
ORIGINATOR     = 

OBJECT_NAME    = STARLINK-37036
OBJECT_ID      = 2026-042J
CENTER_NAME    = EARTH
REF_FRAME      = TEME
TIME_SYSTEM    = UTC
MEAN_ELEMENT_THEORY = SGP/SGP4

EPOCH          = 2026-03-28T18:05:41.769024
MEAN_MOTION    = 15.75338448
ECCENTRICITY   = .00015749
INCLINATION    = 53.1576
RA_OF_ASC_NODE = 99.5669
ARG_OF_PERICENTER = 87.5905
MEAN_ANOMALY   = 272.5296

EPHEMERIS_TYPE = 0
CLASSIFICATION_TYPE = U
NORAD_CAT_ID   = 68077
ELEMENT_SET_NO = 999
REV_AT_EPOCH   = 509
BSTAR          = .2178545E-2
MEAN_MOTION_DOT = .348964E-2
MEAN_MOTION_DDOT = 0

CCSDS_OMM_VERS = 2.0
CREATION_DATE  = 
ORIGINATOR     = 

OBJECT_NAME    = STARLINK-36973
OBJECT_ID      = 2026-042K
CENTER_NAME    = EARTH
REF_FRAME      = TEME
TIME_SYSTEM    = UTC
MEAN_ELEMENT_THEORY = SGP/SGP4

EPOCH          = 2026-03-28T22:00:01.999584
MEAN_MOTION    = 15.75152907
ECCENTRICITY   = .00009464
INCLINATION    = 53.1583
RA_OF_ASC_NODE = 98.4408
ARG_OF_PERICENTER = 95.4402
MEAN_ANOMALY   = 262.5866

EPHEMERIS_TYPE = 0
CLASSIFICATION_TYPE = U
NORAD_CAT_ID   = 68078
ELEMENT_SET_NO = 999
REV_AT_EPOCH   = 514
BSTAR          = .95130288E-3
MEAN_MOTION_DOT = .147192E-2
MEAN_MOTION_DDOT = 0

CCSDS_OMM_VERS = 2.0
CREATION_DATE  = 
ORIGINATOR     = 

OBJECT_NAME    = STARLINK-37063
OBJECT_ID      = 2026-042L
CENTER_NAME    = EARTH
REF_FRAME      = TEME
TIME_SYSTEM    = UTC
MEAN_ELEMENT_THEORY = SGP/SGP4

EPOCH          = 2026-03-28T12:41:34.208160
MEAN_MOTION    = 15.81050327
ECCENTRICITY   = .0003423
INCLINATION    = 53.1576
RA_OF_ASC_NODE = 100.2837
ARG_OF_PERICENTER = 27.2855
MEAN_ANOMALY   = 332.8347

EPHEMERIS_TYPE = 0
CLASSIFICATION_TYPE = U
NORAD_CAT_ID   = 68079
ELEMENT_SET_NO = 999
REV_AT_EPOCH   = 506
BSTAR          = .1725E-2
MEAN_MOTION_DOT = .357157E-2
MEAN_MOTION_DDOT = 0

CCSDS_OMM_VERS = 2.0
CREATION_DATE  = 
ORIGINATOR     = 

OBJECT_NAME    = STARLINK-37051
OBJECT_ID      = 2026-042M
CENTER_NAME    = EARTH
REF_FRAME      = TEME
TIME_SYSTEM    = UTC
MEAN_ELEMENT_THEORY = SGP/SGP4

EPOCH          = 2026-03-28T22:00:01.999584
MEAN_MOTION    = 15.75157526
ECCENTRICITY   = .00010498
INCLINATION    = 53.1586
RA_OF_ASC_NODE = 98.4939
ARG_OF_PERICENTER = 93.7106
MEAN_ANOMALY   = 238.5730

EPHEMERIS_TYPE = 0
CLASSIFICATION_TYPE = U
NORAD_CAT_ID   = 68080
ELEMENT_SET_NO = 999
REV_AT_EPOCH   = 514
BSTAR          = .80914445E-3
MEAN_MOTION_DOT = .124791E-2
MEAN_MOTION_DDOT = 0

CCSDS_OMM_VERS = 2.0
CREATION_DATE  = 
ORIGINATOR     = 

OBJECT_NAME    = STARLINK-37066
OBJECT_ID      = 2026-042N
CENTER_NAME    = EARTH
REF_FRAME      = TEME
TIME_SYSTEM    = UTC
MEAN_ELEMENT_THEORY = SGP/SGP4

EPOCH          = 2026-03-27T16:00:01.999584
MEAN_MOTION    = 15.75271720
ECCENTRICITY   = .00011078
INCLINATION    = 53.1592
RA_OF_ASC_NODE = 104.8635
ARG_OF_PERICENTER = 82.8853
MEAN_ANOMALY   = 281.3066

EPHEMERIS_TYPE = 0
CLASSIFICATION_TYPE = U
NORAD_CAT_ID   = 68081
ELEMENT_SET_NO = 999
REV_AT_EPOCH   = 494
BSTAR          = -.48039367E-3
MEAN_MOTION_DOT = -.73743E-3
MEAN_MOTION_DDOT = 0

