STARLINK-36823          
1 68070U 26042B   26087.28199709  .00340255  00000+0  16534-2 0  9992
2 68070  53.1585 101.5909 0001446  50.7660 309.3491 15.80964953  5020
STARLINK-36970          
1 68071U 26042C   26087.91668981  .00071333  00000+0  46672-3 0  9991
2 68071  53.1585  98.5476 0001187 127.6734 178.8361 15.75183409  5144
STARLINK-36972          
1 68072U 26042D   26087.53411132  .00335905  00000+0  16258-2 0  9998
2 68072  53.1575 100.3191 0000947 145.4718 214.6367 15.81061716  5062
STARLINK-37074          
1 68073U 26042E   26087.91668981  .00014586  00000+0  99274-4 0  9997
2 68073  53.1583  98.4372 0001058 104.9940 254.8912 15.75210777  5148
STARLINK-37045          
1 68074U 26042F   26086.48050108  .00073136  00000+0  47577-3 0  9999
2 68074  53.1596 105.8489 0002770  39.0243 321.0976 15.75302623  4891
STARLINK-37026          
1 68075U 26042G   26087.75881463  .00283723  00000+0  17893-2 0  9999
2 68075  53.1572  99.5999 0001374  86.5344 273.5833 15.75294799  5099
STARLINK-37023          
1 68076U 26042H   26087.75362629  .00324519  00000+0  20330-2 0  9997
2 68076  53.1579  99.5652 0001663  90.9345 269.1866 15.75329475  5091
STARLINK-37036          
1 68077U 26042J   26087.75395566  .00348964  00000+0  21785-2 0  9999
2 68077  53.1576  99.5669 0001574  87.5905 272.5296 15.75338448  5097
STARLINK-36973          
1 68078U 26042K   26087.91668981  .00147192  00000+0  95130-3 0  9998
2 68078  53.1583  98.4408 0000946  95.4402 262.5866 15.75152907  5149
STARLINK-37063          
1 68079U 26042L   26087.52886815  .00357157  00000+0  17250-2 0  9994
2 68079  53.1576 100.2837 0003423  27.2855 332.8347 15.81050327  5064
STARLINK-37051          
1 68080U 26042M   26087.91668981  .00124791  00000+0  80914-3 0  9995
2 68080  53.1586  98.4939 0001049  93.7106 238.5730 15.75157526  5146
STARLINK-37066          
1 68081U 26042N   26086.66668981 -.00073743  00000+0 -48039-3 0  9991
2 68081  53.1592 104.8635 0001107  82.8853 281.3066 15.75271720  4940
